OBJECT_NAME,OBJECT_ID,EPOCH,MEAN_MOTION,ECCENTRICITY,INCLINATION,RA_OF_ASC_NODE,ARG_OF_PERICENTER,MEAN_ANOMALY,EPHEMERIS_TYPE,CLASSIFICATION_TYPE,NORAD_CAT_ID,ELEMENT_SET_NO,REV_AT_EPOCH,BSTAR,MEAN_MOTION_DOT,MEAN_MOTION_DDOT
IRIDIUM 138,2017-083B,2026-06-07T04:48:03.246048,14.34217689,.000241,86.3972,325.8861,89.0490,271.0982,0,U,43071,999,44270,.83836E-4,.255E-5,0
IRIDIUM 116,2017-083C,2026-06-07T04:02:23.096832,14.34217644,.0001876,86.3956,326.1910,93.1118,267.0293,0,U,43072,999,44273,.8039E-4,.245E-5,0
IRIDIUM 130,2017-083D,2026-06-07T04:57:11.131776,14.34217734,.0001998,86.3966,326.4501,87.1530,272.9894,0,U,43073,999,44268,.79331E-4,.242E-5,0
IRIDIUM 151,2017-083E,2026-06-07T04:20:39.136128,14.34218009,.0002111,86.3958,326.2437,92.0346,268.1092,0,U,43074,999,44270,.51846E-4,.165E-5,0
IRIDIUM 134,2017-083F,2026-06-07T00:14:03.156000,14.34218265,.0002086,86.3962,326.3232,87.9738,272.1696,0,U,43075,999,44264,.20539E-4,.77E-6,0
IRIDIUM 137,2017-083G,2026-06-07T03:53:15.103104,14.34217614,.0001957,86.3960,326.3517,100.6324,259.5092,0,U,43076,999,44273,.29918E-4,.104E-5,0
IRIDIUM 141,2017-083H,2026-06-07T05:24:35.202816,14.34217085,.000209,86.3953,326.1569,90.5781,269.5654,0,U,43077,999,44274,-.1898E-4,-.33E-6,0
IRIDIUM 153,2017-083J,2026-06-07T02:35:15.472608,14.34217682,.0002364,86.3955,294.6859,90.6401,269.5066,0,U,43078,999,44383,.64028E-5,.38E-6,0
IRIDIUM 131,2017-083K,2026-06-07T05:06:19.134144,14.34217400,.0002091,86.3959,326.3474,92.1024,268.0412,0,U,43079,999,44267,-.20205E-4,-.37E-6,0
IRIDIUM 144,2018-030A,2026-06-07T02:44:23.342784,14.34217915,.0002047,86.3951,294.6130,97.1761,262.9668,0,U,43249,999,42869,.38058E-4,.126E-5,0
IRIDIUM 149,2018-030B,2026-06-07T02:53:31.447104,14.34217773,.000226,86.3950,294.5773,93.1733,266.9721,0,U,43250,999,42871,.12132E-4,.54E-6,0
IRIDIUM 157,2018-030C,2026-06-07T03:20:55.430880,14.34217494,.0002088,86.3949,294.6223,93.5449,266.5986,0,U,43251,999,42869,-.17364E-5,.15E-6,0
IRIDIUM 140,2018-030D,2026-06-07T02:07:51.423168,14.34217704,.000216,86.3952,294.6559,92.0767,268.0676,0,U,43252,999,42874,.79884E-5,.42E-6,0
IRIDIUM 145,2018-030E,2026-06-07T01:49:35.319072,14.34217502,.0001838,86.3949,294.6335,96.4113,263.7292,0,U,43253,999,42867,.21756E-4,.81E-6,0
IRIDIUM 146,2018-030F,2026-06-07T03:02:39.420960,14.34217403,.0001972,86.3948,294.6246,94.8367,265.3054,0,U,43254,999,42869,-.4554E-5,.7E-7,0
IRIDIUM 148,2018-030G,2026-06-07T02:16:59.356416,14.34217490,.0002075,86.3950,294.6809,97.2182,262.9250,0,U,43255,999,42872,-.79085E-5,-.2E-7,0
IRIDIUM 142,2018-030H,2026-06-07T03:11:47.386176,14.34217626,.0002037,86.3949,294.5542,96.0806,264.0622,0,U,43256,999,42869,.90351E-5,.45E-6,0
IRIDIUM 150,2018-030J,2026-06-07T02:26:07.442592,14.34217652,.0002157,86.3953,294.6836,91.8546,268.2896,0,U,43257,999,42871,.78523E-5,.42E-6,0
IRIDIUM 143,2018-030K,2026-06-07T01:58:43.440672,14.34217539,.0002096,86.3956,294.7836,93.8419,266.3017,0,U,43258,999,42864,.59323E-5,.36E-6,0
IRIDIUM 161,2018-047C,2026-06-07T06:06:44.737344,14.43277630,.0002561,86.4480,92.6240,87.8912,272.2582,0,U,43478,999,42370,.10434E-3,.371E-5,0
IRIDIUM 152,2018-047D,2026-06-07T06:20:50.296128,14.34217835,.0002366,86.3955,92.4807,84.3781,275.7684,0,U,43479,999,42106,.10176E-4,.48E-6,0
IRIDIUM 147,2018-047E,2026-06-07T06:29:58.245792,14.34217103,.0002089,86.3957,92.4830,84.9078,275.2356,0,U,43480,999,42106,.18193E-5,.25E-6,0
IRIDIUM 110,2018-047F,2026-06-07T04:58:38.324064,14.34217773,.0002574,86.3958,92.6011,87.1406,273.0084,0,U,43481,999,42104,.65785E-5,.38E-6,0
IRIDIUM 162,2018-047G,2026-06-07T05:57:40.521888,14.43276320,.0002358,86.4477,92.5176,83.6250,276.5219,0,U,43482,999,42369,.1128E-3,.4E-5,0
IRIDIUM 160,2018-061A,2026-06-07T10:22:30.473760,14.34217948,.0002273,86.3968,60.8758,86.7939,273.3516,0,U,43569,999,41197,.11853E-4,.53E-6,0
IRIDIUM 166,2018-061B,2026-06-07T10:59:02.452128,14.34217606,.0001983,86.3965,60.8155,84.7524,275.3898,0,U,43570,999,41200,-.18165E-5,.15E-6,0
IRIDIUM 158,2018-061C,2026-06-07T10:13:22.473120,14.34217211,.000229,86.3966,60.8392,83.0807,277.0650,0,U,43571,999,41196,.30433E-4,.105E-5,0
IRIDIUM 165,2018-061D,2026-06-07T10:49:53.982336,14.34215993,.0002098,86.3970,60.8745,85.6102,274.5333,0,U,43572,999,41199,.84686E-4,.257E-5,0
IRIDIUM 155,2018-061E,2026-06-07T11:35:34.497024,14.34217585,.0002172,86.3962,60.7307,81.9207,278.2235,0,U,43573,999,41196,-.95119E-6,.17E-6,0
IRIDIUM 154,2018-061F,2026-06-07T06:06:46.430784,14.34217891,.0002037,86.3969,60.9594,86.6275,273.5154,0,U,43574,999,41198,.25224E-4,.9E-6,0
IRIDIUM 163,2018-061G,2026-06-07T10:40:45.700032,14.34220669,.0002319,86.3966,60.7956,83.5298,276.6161,0,U,43575,999,41198,.19492E-4,.74E-6,0
