IRIDIUM 138             
1 43071U 17083B   26158.20003757  .00000255  00000+0  83836-4 0  9993
2 43071  86.3972 325.8861 0002410  89.0490 271.0982 14.34217689442703
IRIDIUM 116             
1 43072U 17083C   26158.16832288  .00000245  00000+0  80390-4 0  9999
2 43072  86.3956 326.1910 0001876  93.1118 267.0293 14.34217644442737
IRIDIUM 130             
1 43073U 17083D   26158.20637884  .00000242  00000+0  79331-4 0  9990
2 43073  86.3966 326.4501 0001998  87.1530 272.9894 14.34217734442680
IRIDIUM 151             
1 43074U 17083E   26158.18100852  .00000165  00000+0  51846-4 0  9993
2 43074  86.3958 326.2437 0002111  92.0346 268.1092 14.34218009442702
IRIDIUM 134             
1 43075U 17083F   26158.00975875  .00000077  00000+0  20539-4 0  9997
2 43075  86.3962 326.3232 0002086  87.9738 272.1696 14.34218265442643
IRIDIUM 137             
1 43076U 17083G   26158.16198036  .00000104  00000+0  29918-4 0  9992
2 43076  86.3960 326.3517 0001957 100.6324 259.5092 14.34217614442734
IRIDIUM 141             
1 43077U 17083H   26158.22540744 -.00000033  00000+0 -18980-4 0  9997
2 43077  86.3953 326.1569 0002090  90.5781 269.5654 14.34217085442743
IRIDIUM 153             
1 43078U 17083J   26158.10781797  .00000038  00000+0  64028-5 0  9998
2 43078  86.3955 294.6859 0002364  90.6401 269.5066 14.34217682443832
IRIDIUM 131             
1 43079U 17083K   26158.21272146 -.00000037  00000+0 -20205-4 0  9993
2 43079  86.3959 326.3474 0002091  92.1024 268.0412 14.34217400442676
IRIDIUM 144             
1 43249U 18030A   26158.11415906  .00000126  00000+0  38058-4 0  9999
2 43249  86.3951 294.6130 0002047  97.1761 262.9668 14.34217915428690
IRIDIUM 149             
1 43250U 18030B   26158.12050286  .00000054  00000+0  12132-4 0  9993
2 43250  86.3950 294.5773 0002260  93.1733 266.9721 14.34217773428714
IRIDIUM 157             
1 43251U 18030C   26158.13953045  .00000015  00000+0 -17364-5 0  9991
2 43251  86.3949 294.6223 0002088  93.5449 266.5986 14.34217494428696
IRIDIUM 140             
1 43252U 18030D   26158.08878962  .00000042  00000+0  79884-5 0  9994
2 43252  86.3952 294.6559 0002160  92.0767 268.0676 14.34217704428744
IRIDIUM 145             
1 43253U 18030E   26158.07610323  .00000081  00000+0  21756-4 0  9996
2 43253  86.3949 294.6335 0001838  96.4113 263.7292 14.34217502428671
IRIDIUM 146             
1 43254U 18030F   26158.12684515  .00000007  00000+0 -45540-5 0  9994
2 43254  86.3948 294.6246 0001972  94.8367 265.3054 14.34217403428690
IRIDIUM 148             
1 43255U 18030G   26158.09513144 -.00000002  00000+0 -79085-5 0  9997
2 43255  86.3950 294.6809 0002075  97.2182 262.9250 14.34217490428727
IRIDIUM 142             
1 43256U 18030H   26158.13318734  .00000045  00000+0  90351-5 0  9995
2 43256  86.3949 294.5542 0002037  96.0806 264.0622 14.34217626428690
IRIDIUM 150             
1 43257U 18030J   26158.10147503  .00000042  00000+0  78523-5 0  9991
2 43257  86.3953 294.6836 0002157  91.8546 268.2896 14.34217652428711
IRIDIUM 143             
1 43258U 18030K   26158.08244723  .00000036  00000+0  59323-5 0  9991
2 43258  86.3956 294.7836 0002096  93.8419 266.3017 14.34217539428649
IRIDIUM 161             
1 43478U 18047C   26158.25468446  .00000371  00000+0  10434-3 0  9992
2 43478  86.4480  92.6240 0002561  87.8912 272.2582 14.43277630423701
IRIDIUM 152             
1 43479U 18047D   26158.26447102  .00000048  00000+0  10176-4 0  9995
2 43479  86.3955  92.4807 0002366  84.3781 275.7684 14.34217835421063
IRIDIUM 147             
1 43480U 18047E   26158.27081303  .00000025  00000+0  18193-5 0  9998
2 43480  86.3957  92.4830 0002089  84.9078 275.2356 14.34217103421069
IRIDIUM 110             
1 43481U 18047F   26158.20738801  .00000038  00000+0  65785-5 0  9997
2 43481  86.3958  92.6011 0002574  87.1406 273.0084 14.34217773421048
IRIDIUM 162             
1 43482U 18047G   26158.24838567  .00000400  00000+0  11280-3 0  9994
2 43482  86.4477  92.5176 0002358  83.6250 276.5219 14.43276320423699
IRIDIUM 160             
1 43569U 18061A   26158.43229715  .00000053  00000+0  11853-4 0  9997
2 43569  86.3968  60.8758 0002273  86.7939 273.3516 14.34217948411971
IRIDIUM 166             
1 43570U 18061B   26158.45766727  .00000015  00000+0 -18165-5 0  9993
2 43570  86.3965  60.8155 0001983  84.7524 275.3898 14.34217606412007
IRIDIUM 158             
1 43571U 18061C   26158.42595455  .00000105  00000+0  30433-4 0  9999
2 43571  86.3966  60.8392 0002290  83.0807 277.0650 14.34217211411961
IRIDIUM 165             
1 43572U 18061D   26158.45131924  .00000257  00000+0  84686-4 0  9997
2 43572  86.3970  60.8745 0002098  85.6102 274.5333 14.34215993411999
IRIDIUM 155             
1 43573U 18061E   26158.48303816  .00000017  00000+0 -95119-6 0  9992
2 43573  86.3962  60.7307 0002172  81.9207 278.2235 14.34217585411960
IRIDIUM 154             
1 43574U 18061F   26158.25470406  .00000090  00000+0  25224-4 0  9996
2 43574  86.3969  60.9594 0002037  86.6275 273.5154 14.34217891411985
IRIDIUM 163             
1 43575U 18061G   26158.44497338  .00000074  00000+0  19492-4 0  9993
2 43575  86.3966  60.7956 0002319  83.5298 276.6161 14.34220669411986
